start=new Date('2021-12-29T00:00:00.000Z').valueOf();
sats=[{"COUNTRY_CODE":"US","SITE":"AFETR","FILE":"3254265","DECAY_DATE":null,"MEAN_MOTION_DDOT":"0.0000000000000","APOAPSIS":"519.673","CENTER_NAME":"EARTH","EPHEMERIS_TYPE":"0","GP_ID":"192677266","ARG_OF_PERICENTER":"126.0124","CLASSIFICATION_TYPE":"U","ELEMENT_SET_NO":"999","BSTAR":"-0.00148270000000","MEAN_ELEMENT_THEORY":"SGP4","ECCENTRICITY":"0.00025170","OBJECT_ID":"2021-059C","MEAN_MOTION":"15.16003062","REV_AT_EPOCH":"359","MEAN_ANOMALY":"269.4749","REF_FRAME":"TEME","OBJECT_TYPE":"PAYLOAD","PERIAPSIS":"516.201","LAUNCH_DATE":"2021-06-30","PERIOD":"94.987","MEAN_MOTION_DOT":"-0.00028414","RA_OF_ASC_NODE":"130.0144","TLE_LINE1":"1 48881U 21059C   21362.91667824 -.00028414  00000-0 -14827-2 0  9998","RCS_SIZE":"LARGE","TIME_SYSTEM":"UTC","OBJECT_NAME":"STARLINK-3005","NORAD_CAT_ID":"48881","TLE_LINE2":"2 48881  97.5263 130.0144 0002517 126.0124 269.4749 15.16003062  3599","SEMIMAJOR_AXIS":"6896.072","EPOCH":"2021-12-28T22:00:00.999936","INCLINATION":"97.5263"},{"COUNTRY_CODE":"US","FILE":"3254265","SITE":"AFWTR","MEAN_MOTION_DDOT":"0.0000000000000","DECAY_DATE":null,"EPHEMERIS_TYPE":"0","CENTER_NAME":"EARTH","APOAPSIS":"361.973","ELEMENT_SET_NO":"999","CLASSIFICATION_TYPE":"U","ARG_OF_PERICENTER":"273.2424","GP_ID":"192676054","BSTAR":"-0.00020243000000","MEAN_ELEMENT_THEORY":"SGP4","OBJECT_ID":"2021-082B","MEAN_MOTION":"15.69759849","ECCENTRICITY":"0.00035420","REV_AT_EPOCH":"368","MEAN_ANOMALY":"130.1836","OBJECT_TYPE":"PAYLOAD","REF_FRAME":"TEME","MEAN_MOTION_DOT":"-0.00024319","PERIOD":"91.734","PERIAPSIS":"357.200","LAUNCH_DATE":"2021-09-14","RCS_SIZE":"LARGE","TLE_LINE1":"1 49131U 21082B   21362.91667824 -.00024319  00000-0 -20243-3 0  9993","RA_OF_ASC_NODE":"189.5232","TLE_LINE2":"2 49131  69.9989 189.5232 0003542 273.2424 130.1836 15.69759849  3680","NORAD_CAT_ID":"49131","SEMIMAJOR_AXIS":"6737.721","TIME_SYSTEM":"UTC","OBJECT_NAME":"STARLINK-3096","EPOCH":"2021-12-28T22:00:00.999936","INCLINATION":"69.9989"},{"ECCENTRICITY":"0.00032000","OBJECT_ID":"2021-082C","MEAN_MOTION":"15.01691350","BSTAR":"-0.04629300000000","MEAN_ELEMENT_THEORY":"SGP4","GP_ID":"192676799","ARG_OF_PERICENTER":"272.3383","CLASSIFICATION_TYPE":"U","ELEMENT_SET_NO":"999","APOAPSIS":"563.903","CENTER_NAME":"EARTH","EPHEMERIS_TYPE":"0","DECAY_DATE":null,"MEAN_MOTION_DDOT":"0.0000000000000","SITE":"AFWTR","FILE":"3254265","COUNTRY_CODE":"US","INCLINATION":"69.9996","EPOCH":"2021-12-28T22:00:00.999936","TIME_SYSTEM":"UTC","OBJECT_NAME":"STARLINK-3090","SEMIMAJOR_AXIS":"6939.818","TLE_LINE2":"2 49132  69.9996 196.6170 0003200 272.3383  60.4313 15.01691350  3609","NORAD_CAT_ID":"49132","RA_OF_ASC_NODE":"196.6170","TLE_LINE1":"1 49132U 21082C   21362.91667824 -.00563846  00000-0 -46293-1 0  9998","RCS_SIZE":"LARGE","LAUNCH_DATE":"2021-09-14","PERIAPSIS":"559.462","PERIOD":"95.892","MEAN_MOTION_DOT":"-0.00563846","REF_FRAME":"TEME","OBJECT_TYPE":"PAYLOAD","MEAN_ANOMALY":"60.4313","REV_AT_EPOCH":"360"},{"SITE":"AFWTR","FILE":"3254265","COUNTRY_CODE":"US","DECAY_DATE":null,"MEAN_MOTION_DDOT":"0.0000000000000","GP_ID":"192677543","ELEMENT_SET_NO":"999","ARG_OF_PERICENTER":"271.0508","CLASSIFICATION_TYPE":"U","EPHEMERIS_TYPE":"0","APOAPSIS":"564.420","CENTER_NAME":"EARTH","OBJECT_ID":"2021-082D","MEAN_MOTION":"15.01561067","ECCENTRICITY":"0.00033660","BSTAR":"0.00239000000000","MEAN_ELEMENT_THEORY":"SGP4","MEAN_ANOMALY":"68.6450","REV_AT_EPOCH":"360","PERIAPSIS":"559.748","LAUNCH_DATE":"2021-09-14","MEAN_MOTION_DOT":"0.00031065","PERIOD":"95.900","OBJECT_TYPE":"PAYLOAD","REF_FRAME":"TEME","OBJECT_NAME":"STARLINK-3077","TIME_SYSTEM":"UTC","TLE_LINE2":"2 49133  69.9978 196.6302 0003366 271.0508  68.6450 15.01561067  3608","SEMIMAJOR_AXIS":"6940.219","NORAD_CAT_ID":"49133","RCS_SIZE":"LARGE","TLE_LINE1":"1 49133U 21082D   21362.91667824  .00031065  00000-0  23900-2 0  9991","RA_OF_ASC_NODE":"196.6302","INCLINATION":"69.9978","EPOCH":"2021-12-28T22:00:00.999936"},{"REV_AT_EPOCH":"360","MEAN_ANOMALY":"103.0759","REF_FRAME":"TEME","OBJECT_TYPE":"PAYLOAD","PERIAPSIS":"560.008","LAUNCH_DATE":"2021-09-14","PERIOD":"95.900","MEAN_MOTION_DOT":"0.00030216","TLE_LINE1":"1 49134U 21082E   21362.91667824  .00030216  00000-0  23247-2 0  9993","RA_OF_ASC_NODE":"196.6178","RCS_SIZE":"LARGE","TIME_SYSTEM":"UTC","OBJECT_NAME":"STARLINK-3078","TLE_LINE2":"2 49134  69.9989 196.6178 0002959 272.5427 103.0759 15.01568490  3608","SEMIMAJOR_AXIS":"6940.196","NORAD_CAT_ID":"49134","EPOCH":"2021-12-28T22:00:00.999936","INCLINATION":"69.9989","COUNTRY_CODE":"US","SITE":"AFWTR","FILE":"3254265","DECAY_DATE":null,"MEAN_MOTION_DDOT":"0.0000000000000","CENTER_NAME":"EARTH","APOAPSIS":"564.115","EPHEMERIS_TYPE":"0","GP_ID":"192677295","ARG_OF_PERICENTER":"272.5427","CLASSIFICATION_TYPE":"U","ELEMENT_SET_NO":"999","BSTAR":"0.00232470000000","MEAN_ELEMENT_THEORY":"SGP4","ECCENTRICITY":"0.00029590","OBJECT_ID":"2021-082E","MEAN_MOTION":"15.01568490"},{"APOAPSIS":"361.786","CENTER_NAME":"EARTH","EPHEMERIS_TYPE":"0","GP_ID":"192676552","ARG_OF_PERICENTER":"277.6035","CLASSIFICATION_TYPE":"U","ELEMENT_SET_NO":"999","MEAN_ELEMENT_THEORY":"SGP4","BSTAR":"-0.00022151000000","ECCENTRICITY":"0.00032510","MEAN_MOTION":"15.69756410","OBJECT_ID":"2021-082F","COUNTRY_CODE":"US","FILE":"3254265","SITE":"AFWTR","DECAY_DATE":null,"MEAN_MOTION_DDOT":"0.0000000000000","TLE_LINE1":"1 49135U 21082F   21362.91667824 -.00026579  00000-0 -22151-3 0  9997","RA_OF_ASC_NODE":"189.5142","RCS_SIZE":"LARGE","TIME_SYSTEM":"UTC","OBJECT_NAME":"STARLINK-3073","SEMIMAJOR_AXIS":"6737.731","TLE_LINE2":"2 49135  69.9991 189.5142 0003251 277.6035 132.2476 15.69756410  3684","NORAD_CAT_ID":"49135","EPOCH":"2021-12-28T22:00:00.999936","INCLINATION":"69.9991","REV_AT_EPOCH":"368","MEAN_ANOMALY":"132.2476","REF_FRAME":"TEME","OBJECT_TYPE":"PAYLOAD","PERIAPSIS":"357.406","LAUNCH_DATE":"2021-09-14","PERIOD":"91.734","MEAN_MOTION_DOT":"-0.00026579"},{"BSTAR":"-0.00024025000000","MEAN_ELEMENT_THEORY":"SGP4","ECCENTRICITY":"0.00033350","OBJECT_ID":"2021-082G","MEAN_MOTION":"15.69771847","CENTER_NAME":"EARTH","APOAPSIS":"361.799","EPHEMERIS_TYPE":"0","GP_ID":"192676303","ARG_OF_PERICENTER":"273.0179","CLASSIFICATION_TYPE":"U","ELEMENT_SET_NO":"999","DECAY_DATE":null,"MEAN_MOTION_DDOT":"0.0000000000000","COUNTRY_CODE":"US","FILE":"3254265","SITE":"AFWTR","EPOCH":"2021-12-28T22:00:00.999936","INCLINATION":"69.9976","TLE_LINE1":"1 49136U 21082G   21362.91667824 -.00028821  00000-0 -24025-3 0  9992","RA_OF_ASC_NODE":"189.5231","RCS_SIZE":"LARGE","OBJECT_NAME":"STARLINK-3084","TIME_SYSTEM":"UTC","TLE_LINE2":"2 49136  69.9976 189.5231 0003335 273.0179 134.6130 15.69771847  3683","NORAD_CAT_ID":"49136","SEMIMAJOR_AXIS":"6737.687","REF_FRAME":"TEME","OBJECT_TYPE":"PAYLOAD","PERIAPSIS":"357.305","LAUNCH_DATE":"2021-09-14","PERIOD":"91.733","MEAN_MOTION_DOT":"-0.00028821","REV_AT_EPOCH":"368","MEAN_ANOMALY":"134.6130"},{"COUNTRY_CODE":"US","SITE":"AFWTR","FILE":"3254265","MEAN_MOTION_DDOT":"0.0000000000000","DECAY_DATE":null,"EPHEMERIS_TYPE":"0","CENTER_NAME":"EARTH","APOAPSIS":"361.790","ELEMENT_SET_NO":"999","CLASSIFICATION_TYPE":"U","ARG_OF_PERICENTER":"272.5049","GP_ID":"192677048","BSTAR":"-0.00025426000000","MEAN_ELEMENT_THEORY":"SGP4","OBJECT_ID":"2021-082H","MEAN_MOTION":"15.69774654","ECCENTRICITY":"0.00033340","REV_AT_EPOCH":"368","MEAN_ANOMALY":"139.4460","OBJECT_TYPE":"PAYLOAD","REF_FRAME":"TEME","MEAN_MOTION_DOT":"-0.00030486","PERIOD":"91.733","PERIAPSIS":"357.297","LAUNCH_DATE":"2021-09-14","RCS_SIZE":"LARGE","RA_OF_ASC_NODE":"189.5125","TLE_LINE1":"1 49137U 21082H   21362.91667824 -.00030486  00000-0 -25426-3 0  9999","TLE_LINE2":"2 49137  69.9990 189.5125 0003334 272.5049 139.4460 15.69774654  3689","SEMIMAJOR_AXIS":"6737.679","NORAD_CAT_ID":"49137","OBJECT_NAME":"STARLINK-3055","TIME_SYSTEM":"UTC","EPOCH":"2021-12-28T22:00:00.999936","INCLINATION":"69.9990"},{"EPOCH":"2021-12-28T22:00:00.999936","INCLINATION":"70.0001","RCS_SIZE":"LARGE","TLE_LINE1":"1 49138U 21082J   21362.91667824 -.00694132  00000-0 -53131-1 0  9996","RA_OF_ASC_NODE":"196.5409","TLE_LINE2":"2 49138  70.0001 196.5409 0003188 266.1945 202.2032 15.04441405  3600","NORAD_CAT_ID":"49138","SEMIMAJOR_AXIS":"6931.358","TIME_SYSTEM":"UTC","OBJECT_NAME":"STARLINK-3058","OBJECT_TYPE":"PAYLOAD","REF_FRAME":"TEME","MEAN_MOTION_DOT":"-0.00694132","PERIOD":"95.717","PERIAPSIS":"551.013","LAUNCH_DATE":"2021-09-14","REV_AT_EPOCH":"360","MEAN_ANOMALY":"202.2032","BSTAR":"-0.05313100000000","MEAN_ELEMENT_THEORY":"SGP4","OBJECT_ID":"2021-082J","MEAN_MOTION":"15.04441405","ECCENTRICITY":"0.00031880","EPHEMERIS_TYPE":"0","CENTER_NAME":"EARTH","APOAPSIS":"555.433","ELEMENT_SET_NO":"999","ARG_OF_PERICENTER":"266.1945","CLASSIFICATION_TYPE":"U","GP_ID":"192677791","MEAN_MOTION_DDOT":"0.0000000000000","DECAY_DATE":null,"COUNTRY_CODE":"US","SITE":"AFWTR","FILE":"3254265"},{"INCLINATION":"69.9999","EPOCH":"2021-12-28T22:00:00.999936","TIME_SYSTEM":"UTC","OBJECT_NAME":"STARLINK-3057","SEMIMAJOR_AXIS":"6737.708","TLE_LINE2":"2 49139  69.9999 189.5054 0003391 273.9455 142.2484 15.69764314  3680","NORAD_CAT_ID":"49139","TLE_LINE1":"1 49139U 21082K   21362.91667824 -.00024063  00000-0 -20024-3 0  9994","RA_OF_ASC_NODE":"189.5054","RCS_SIZE":"LARGE","PERIAPSIS":"357.289","LAUNCH_DATE":"2021-09-14","PERIOD":"91.734","MEAN_MOTION_DOT":"-0.00024063","REF_FRAME":"TEME","OBJECT_TYPE":"PAYLOAD","MEAN_ANOMALY":"142.2484","REV_AT_EPOCH":"368","ECCENTRICITY":"0.00033910","MEAN_MOTION":"15.69764314","OBJECT_ID":"2021-082K","BSTAR":"-0.00020024000000","MEAN_ELEMENT_THEORY":"SGP4","GP_ID":"192676055","CLASSIFICATION_TYPE":"U","ARG_OF_PERICENTER":"273.9455","ELEMENT_SET_NO":"999","CENTER_NAME":"EARTH","APOAPSIS":"361.858","EPHEMERIS_TYPE":"0","DECAY_DATE":null,"MEAN_MOTION_DDOT":"0.0000000000000","SITE":"AFWTR","FILE":"3254265","COUNTRY_CODE":"US"}];
